OBJECT_NAME,OBJECT_ID,EPOCH,MEAN_MOTION,ECCENTRICITY,INCLINATION,RA_OF_ASC_NODE,ARG_OF_PERICENTER,MEAN_ANOMALY,EPHEMERIS_TYPE,CLASSIFICATION_TYPE,NORAD_CAT_ID,ELEMENT_SET_NO,REV_AT_EPOCH,BSTAR,MEAN_MOTION_DOT,MEAN_MOTION_DDOT
STARLINK-37755,2026-115Z,2026-07-01T23:43:11.536608,15.49190918,.00007586,97.2857,200.8606,76.7503,283.3833,0,U,69234,999,699,.12460752E-2,.68274E-3,0
TJS-24,2026-116A,2026-07-02T04:08:22.710048,1.00274601,.00003136,0.0476,100.4984,337.4812,354.5993,0,U,69235,999,37,0,-.221E-5,0
STARLINK-37665,2026-117A,2026-07-02T06:00:02.999808,15.44587363,.00016834,53.1596,169.0728,81.3499,299.1353,0,U,69238,999,599,-.25750774E-1,-.1114645E-1,0
STARLINK-37558,2026-117B,2026-07-02T06:00:02.999808,15.49814367,.00015636,53.1606,168.8256,69.5079,73.0319,0,U,69239,999,599,-.23297169E-1,-.1201958E-1,0
STARLINK-37680,2026-117C,2026-07-02T06:00:02.999808,15.48519905,.00011541,53.1604,168.7972,71.5029,84.8770,0,U,69240,999,605,-.51953067E-1,-.249212E-1,0
STARLINK-37742,2026-117D,2026-07-02T06:00:02.999808,15.50031389,.00015566,53.1603,168.8173,68.3938,77.9316,0,U,69241,999,605,-.49691293E-1,-.2512866E-1,0
STARLINK-37718,2026-117E,2026-07-02T06:00:02.999808,15.46806674,.00011227,53.1601,168.8411,72.1497,62.0524,0,U,69242,999,605,-.20890186E-1,-.973746E-2,0
STARLINK-37735,2026-117F,2026-07-02T06:00:02.999808,15.47444773,.00012403,53.1603,168.9923,81.8114,337.8315,0,U,69243,999,600,-.2066062E-1,-.983828E-2,0
STARLINK-37757,2026-117G,2026-07-02T06:00:02.999808,15.47184552,.0000937,53.1604,168.9273,69.9744,21.3367,0,U,69244,999,605,-.54142578E-1,-.2479415E-1,0
STARLINK-37767,2026-117H,2026-07-02T06:00:02.999808,15.48798137,.00015125,53.1607,168.7903,63.0184,95.6157,0,U,69245,999,605,-.51352362E-1,-.2488448E-1,0
STARLINK-35759,2026-117J,2026-07-02T06:00:02.999808,15.43105450,.0001693,53.1609,168.8503,70.0249,58.2086,0,U,69246,999,599,-.43320967E-1,-.1760195E-1,0
STARLINK-37238,2026-117K,2026-07-02T04:53:32.497440,15.49327991,.00006643,53.1603,169.5350,123.2156,236.8917,0,U,69247,999,533,.65467805E-3,.36155E-3,0
STARLINK-37412,2026-117L,2026-07-02T06:00:02.999808,15.44954797,.00015784,53.1606,168.7686,61.1329,105.9940,0,U,69248,999,606,-.59495893E-1,-.2517095E-1,0
STARLINK-37398,2026-117M,2026-07-02T06:00:02.999808,15.49285569,.00012271,53.1597,169.1464,89.5036,251.9477,0,U,69249,999,606,.62860076E-3,.34638E-3,0
STARLINK-37499,2026-117N,2026-07-02T06:00:02.999808,15.49310438,.00013342,53.1600,168.9967,78.4900,336.4405,0,U,69250,999,606,.52687177E-4,.2483E-4,0
STARLINK-37489,2026-117P,2026-07-02T06:00:02.999808,15.49284560,.00012984,53.1598,169.0642,80.1629,301.6105,0,U,69251,999,606,.74839998E-3,.41359E-3,0
STARLINK-37434,2026-117Q,2026-07-02T05:21:13.851936,15.49324963,.00013771,53.1606,169.6584,86.6589,273.4578,0,U,69252,999,533,.92562667E-3,.514E-3,0
STARLINK-37368,2026-117R,2026-07-02T06:00:02.999808,15.50431383,.00010018,53.1597,168.3998,96.2272,251.6391,0,U,69253,999,606,-.4932072E-1,-.2527691E-1,0
STARLINK-37517,2026-117S,2026-07-02T06:00:02.999808,15.44951458,.00013758,53.1601,168.5614,98.9399,168.4564,0,U,69254,999,606,-.58342733E-1,-.2473474E-1,0
STARLINK-37378,2026-117T,2026-07-02T06:00:02.999808,15.47209393,.00014491,53.1596,168.5179,99.8548,189.2278,0,U,69255,999,606,-.53828841E-1,-.246894E-1,0
STARLINK-37396,2026-117U,2026-07-02T06:00:02.999808,15.43953398,.0001499,53.1604,168.5153,103.0473,185.9107,0,U,69256,999,607,-.32770904E-1,-.1381379E-1,0
STARLINK-37508,2026-117V,2026-07-02T06:00:02.999808,15.44259763,.00018424,53.1596,168.6138,91.7220,148.6490,0,U,69257,999,612,-.59334877E-1,-.24587E-1,0
STARLINK-37276,2026-117W,2026-06-30T06:24:33.268608,15.49324198,.0001608,53.1592,178.7637,59.4222,300.6945,0,U,69258,999,503,.79370643E-3,.43967E-3,0
STARLINK-37518,2026-117X,2026-07-02T06:00:02.999808,15.43840522,.00016585,53.1597,169.3165,83.7625,165.5808,0,U,69259,999,607,-.61021652E-1,-.2488528E-1,0
STARLINK-37478,2026-117Y,2026-07-02T06:03:32.400576,15.49311284,.0001329,53.1592,169.8386,80.2511,279.8649,0,U,69260,999,533,.63613175E-3,.35093E-3,0
STARLINK-37506,2026-117Z,2026-07-02T06:43:46.437312,15.49319384,.00011875,53.1607,169.2916,75.5040,284.6101,0,U,69261,999,533,.45952316E-3,.252E-3,0
STARLINK-37503,2026-117AA,2026-07-02T06:00:02.999808,15.42733308,.00010999,53.1596,169.1491,103.2452,228.4240,0,U,69262,999,596,-.66413694E-1,-.2593289E-1,0
STARLINK-37502,2026-117AB,2026-07-02T06:30:08.865216,15.49311310,.00013058,53.1594,169.2283,79.7140,280.4017,0,U,69263,999,534,.11287877E-2,.62842E-3,0
STARLINK-37486,2026-117AC,2026-07-02T06:00:02.999808,15.37857475,.0001067,53.1599,169.0932,97.0526,262.4617,0,U,69264,999,596,-.99055862E-1,-.3255378E-1,0
STARLINK-37435,2026-117AD,2026-07-02T06:00:02.999808,15.37627550,.00026376,53.1609,168.8006,99.4296,43.5370,0,U,69265,999,596,-.88337294E-1,-.2926968E-1,0
