STARLINK-37755          
1 69234U 26115Z   26182.98832797  .00068274  00000+0  12461-2 0  9993
2 69234  97.2857 200.8606 0000758  76.7503 283.3833 15.49190918  6995
TJS-24                  
1 69235U 26116A   26183.17248507 -.00000221  00000+0  00000+0 0  9999
2 69235   0.0476 100.4984 0000313 337.4812 354.5993  1.00274601   374
STARLINK-37665          
1 69238U 26117A   26183.25003472 -.01114645  00000+0 -25751-1 0  9992
2 69238  53.1596 169.0728 0001683  81.3499 299.1353 15.44587363  5995
STARLINK-37558          
1 69239U 26117B   26183.25003472 -.01201958  00000+0 -23297-1 0  9990
2 69239  53.1606 168.8256 0001563  69.5079  73.0319 15.49814367  5993
STARLINK-37680          
1 69240U 26117C   26183.25003472 -.02492120  00000+0 -51953-1 0  9996
2 69240  53.1604 168.7972 0001154  71.5029  84.8770 15.48519905  6059
STARLINK-37742          
1 69241U 26117D   26183.25003472 -.02512866  00000+0 -49691-1 0  9993
2 69241  53.1603 168.8173 0001556  68.3938  77.9316 15.50031389  6059
STARLINK-37718          
1 69242U 26117E   26183.25003472 -.00973746  00000+0 -20890-1 0  9990
2 69242  53.1601 168.8411 0001122  72.1497  62.0524 15.46806674  6053
STARLINK-37735          
1 69243U 26117F   26183.25003472 -.00983828  00000+0 -20661-1 0  9999
2 69243  53.1603 168.9923 0001240  81.8114 337.8315 15.47444773  6004
STARLINK-37757          
1 69244U 26117G   26183.25003472 -.02479415  00000+0 -54143-1 0  9996
2 69244  53.1604 168.9273 0000937  69.9744  21.3367 15.47184552  6055
STARLINK-37767          
1 69245U 26117H   26183.25003472 -.02488448  00000+0 -51352-1 0  9992
2 69245  53.1607 168.7903 0001512  63.0184  95.6157 15.48798137  6052
STARLINK-35759          
1 69246U 26117J   26183.25003472 -.01760195  00000+0 -43321-1 0  9991
2 69246  53.1609 168.8503 0001693  70.0249  58.2086 15.43105450  5995
STARLINK-37238          
1 69247U 26117K   26183.20384835  .00036155  00000+0  65468-3 0  9999
2 69247  53.1603 169.5350 0000664 123.2156 236.8917 15.49327991  5330
STARLINK-37412          
1 69248U 26117L   26183.25003472 -.02517095  00000+0 -59496-1 0  9993
2 69248  53.1606 168.7686 0001578  61.1329 105.9940 15.44954797  6062
STARLINK-37398          
1 69249U 26117M   26183.25003472  .00034638  00000+0  62860-3 0  9998
2 69249  53.1597 169.1464 0001227  89.5036 251.9477 15.49285569  6067
STARLINK-37499          
1 69250U 26117N   26183.25003472  .00002483  00000+0  52687-4 0  9990
2 69250  53.1600 168.9967 0001334  78.4900 336.4405 15.49310438  6069
STARLINK-37489          
1 69251U 26117P   26183.25003472  .00041359  00000+0  74840-3 0  9990
2 69251  53.1598 169.0642 0001298  80.1629 301.6105 15.49284560  6062
STARLINK-37434          
1 69252U 26117Q   26183.22307699  .00051400  00000+0  92563-3 0  9996
2 69252  53.1606 169.6584 0001377  86.6589 273.4578 15.49324963  5339
STARLINK-37368          
1 69253U 26117R   26183.25003472 -.02527691  00000+0 -49321-1 0  9998
2 69253  53.1597 168.3998 0001001  96.2272 251.6391 15.50431383  6063
STARLINK-37517          
1 69254U 26117S   26183.25003472 -.02473474  00000+0 -58343-1 0  9992
2 69254  53.1601 168.5614 0001375  98.9399 168.4564 15.44951458  6060
STARLINK-37378          
1 69255U 26117T   26183.25003472 -.02468940  00000+0 -53829-1 0  9999
2 69255  53.1596 168.5179 0001449  99.8548 189.2278 15.47209393  6068
STARLINK-37396          
1 69256U 26117U   26183.25003472 -.01381379  00000+0 -32771-1 0  9992
2 69256  53.1604 168.5153 0001499 103.0473 185.9107 15.43953398  6073
STARLINK-37508          
1 69257U 26117V   26183.25003472 -.02458700  00000+0 -59335-1 0  9992
2 69257  53.1596 168.6138 0001842  91.7220 148.6490 15.44259763  6126
STARLINK-37276          
1 69258U 26117W   26181.26705172  .00043967  00000+0  79371-3 0  9993
2 69258  53.1592 178.7637 0001608  59.4222 300.6945 15.49324198  5036
STARLINK-37518          
1 69259U 26117X   26183.25003472 -.02488528  00000+0 -61022-1 0  9991
2 69259  53.1597 169.3165 0001658  83.7625 165.5808 15.43840522  6075
STARLINK-37478          
1 69260U 26117Y   26183.25245834  .00035093  00000+0  63613-3 0  9994
2 69260  53.1592 169.8386 0001329  80.2511 279.8649 15.49311284  5337
STARLINK-37506          
1 69261U 26117Z   26183.28039858  .00025200  00000+0  45952-3 0  9990
2 69261  53.1607 169.2916 0001187  75.5040 284.6101 15.49319384  5330
STARLINK-37503          
1 69262U 26117AA  26183.25003472 -.02593289  00000+0 -66414-1 0  9996
2 69262  53.1596 169.1491 0001099 103.2452 228.4240 15.42733308  5961
STARLINK-37502          
1 69263U 26117AB  26183.27093594  .00062842  00000+0  11288-2 0  9995
2 69263  53.1594 169.2283 0001305  79.7140 280.4017 15.49311310  5345
STARLINK-37486          
1 69264U 26117AC  26183.25003472 -.03255378  00000+0 -99056-1 0  9991
2 69264  53.1599 169.0932 0001067  97.0526 262.4617 15.37857475  5964
STARLINK-37435          
1 69265U 26117AD  26183.25003472 -.02926968  00000+0 -88337-1 0  9991
2 69265  53.1609 168.8006 0002637  99.4296  43.5370 15.37627550  5963
